[{"id":"259579","name":"Palais Royal","address":{"address_locality":"Rotterdam","postal_code":"3051 GR"}},{"id":"39485","name":"L'ecailler du palais royal","address":{"address_locality":"Bruxelles","postal_code":"1000"}},{"id":"324349","name":"Au Palais Royal","address":{"address_locality":"Paris","postal_code":"75020"}},{"id":"21741","name":"Restaurant du Palais Royal","address":{"address_locality":"Paris","postal_code":"75001"}},{"id":"29935","name":"Louise - Palais Royal","address":{"address_locality":"Paris","postal_code":"75001"}},{"id":"20581","name":"Passy Mandarin Palais Royal","address":{"address_locality":"Paris","postal_code":"75002"}},{"id":"27877","name":"La Table du Palais Royal","address":{"address_locality":"Paris","postal_code":"75001"}},{"id":"29863","name":"Le Palais Royal d'\u00c9vry","address":{"address_locality":"\u00c9vry","postal_code":"91000"}},{"id":"30920","name":"Le Lulli - Grand H\u00f4tel du Palais Royal","address":{"address_locality":"Paris","postal_code":"75001"}}][{"id":"259579","name":"Palais Royal","address":{"address_locality":"Rotterdam","postal_code":"3051 GR"}},{"id":"39485","name":"L'ecailler du palais royal","address":{"address_locality":"Bruxelles","postal_code":"1000"}},{"id":"324349","name":"Au Palais Royal","address":{"address_locality":"Paris","postal_code":"75020"}},{"id":"21741","name":"Restaurant du Palais Royal","address":{"address_locality":"Paris","postal_code":"75001"}},{"id":"29935","name":"Louise - Palais Royal","address":{"address_locality":"Paris","postal_code":"75001"}},{"id":"20581","name":"Passy Mandarin Palais Royal","address":{"address_locality":"Paris","postal_code":"75002"}},{"id":"27877","name":"La Table du Palais Royal","address":{"address_locality":"Paris","postal_code":"75001"}},{"id":"29863","name":"Le Palais Royal d'\u00c9vry","address":{"address_locality":"\u00c9vry","postal_code":"91000"}},{"id":"30920","name":"Le Lulli - Grand H\u00f4tel du Palais Royal","address":{"address_locality":"Paris","postal_code":"75001"}}]